0 IABS R/B
1 25021U 97065C   13283.43607372  .00000000  00000-0  10000-3 0  4861
2 25021 012.7663 036.1310 0035148 029.2365 330.9639 01.01058520 59682
0 IABS R/B
1 25021U 97065C   13283.43608463 -.00000012  00000-0  10000-3 0  4867
2 25021 012.7681 036.1322 0035559 029.4232 330.7768 01.01061731 59685
0 IABS R/B
1 25021U 97065C   13286.40442000 -.00000066  00000-0  10000-3 0  4870
2 25021 012.7725 036.0967 0035472 029.6554 330.5426 01.01062776 59714
0 IABS R/B
1 25021U 97065C   13289.37268013 -.00000117  00000-0  10000-3 0  4887
2 25021 012.7770 036.0604 0035808 029.7112 330.4709 01.01063560 59744
0 IABS R/B
1 25021U 97065C   13290.36210455  .00000000  00000-0  10000-3 0  4919
2 25021 012.7799 036.0492 0034433 029.2055 330.9634 01.01060211 59757
0 IABS R/B
1 25021U 97065C   13292.34092824 -.00000164  00000-0  10000-3 0  4896
2 25021 012.7813 036.0249 0035709 029.8900 330.2761 01.01064059 59776
0 IABS R/B
1 25021U 97065C   13295.30921174 -.00000204  00000-0  10000-3 0  4901
2 25021 012.7866 035.9899 0035256 030.0751 330.0920 01.01064278 59800
